OBJECT_NAME,OBJECT_ID,EPOCH,MEAN_MOTION,ECCENTRICITY,INCLINATION,RA_OF_ASC_NODE,ARG_OF_PERICENTER,MEAN_ANOMALY,EPHEMERIS_TYPE,CLASSIFICATION_TYPE,NORAD_CAT_ID,ELEMENT_SET_NO,REV_AT_EPOCH,BSTAR,MEAN_MOTION_DOT,MEAN_MOTION_DDOT
LEMUR-1,2014-033AL,2026-06-15T04:55:51.896064,14.85239771,.0049737,97.7873,316.0544,84.9859,275.7031,0,U,40044,999,64517,.19922E-3,.1692E-4,0
LEMUR-2-GREENBERG,2017-042N,2026-06-15T01:28:15.354048,15.31272403,.0008732,97.3809,346.6958,21.4867,338.6739,0,U,42837,999,48806,.50134E-3,.15096E-3,0
LEMUR-2-ANDIS,2017-042P,2026-06-14T23:09:39.449952,15.34769509,.0008333,97.3668,346.7764,20.5329,339.6247,0,U,42838,999,48811,.5556E-3,.18691E-3,0
LEMUR-2-MONSON,2017-042Q,2026-06-15T01:34:15.060576,15.27962413,.0006401,97.4070,346.6755,13.7742,346.3671,0,U,42839,999,48784,.4608E-3,.12514E-3,0
LEMUR-2-FURIAUS,2017-042R,2026-06-15T01:17:09.712896,15.30191665,.0008265,97.3761,344.6485,75.5728,284.6429,0,U,42840,999,48788,.55192E-3,.16079E-3,0
LEMUR-2-PETERG,2017-042S,2026-06-15T00:18:46.350144,15.33813565,.0003393,97.3979,351.0396,5.4383,354.6896,0,U,42841,999,48810,.56204E-3,.18327E-3,0
LEMUR-2-DEMBITZ,2017-042T,2026-06-15T00:11:42.963360,15.30235701,.0006945,97.3815,347.6254,36.2361,323.9349,0,U,42842,999,48801,.49658E-3,.14472E-3,0
LEMUR-2-ZACHARY,2017-042W,2026-06-15T01:26:10.339296,15.50105171,.0003067,97.3590,357.6517,41.4849,318.6635,0,U,42845,999,48887,.73844E-3,.41606E-3,0
LEMUR-2-AMANDA-SVANTE,2021-034B,2026-06-15T03:21:34.833600,15.34194789,.0002003,97.5768,244.3713,214.3391,145.7722,0,U,48269,999,28074,.91393E-3,.30254E-3,0
LEMUR-2-SPECIAL-K,2021-034F,2026-06-15T00:55:06.514176,15.63929382,.0004061,97.5660,252.7401,229.7294,130.3610,0,U,48273,999,28135,.13684E-2,.130377E-2,0
LEMUR-2-EMBRIONOVIS,2023-084AQ,2026-06-15T02:51:31.688064,15.37506028,.0007867,97.6285,310.2386,328.4119,31.6652,0,U,56970,999,16736,.32986E-3,.12065E-3,0
LEMUR-2-DEVERILL-M-T,2023-100F,2026-06-15T00:36:22.146912,15.39660768,.0006534,99.4467,204.1591,57.0235,303.1631,0,U,57391,999,16091,.62408E-3,.24579E-3,0
LEMUR-2-BASS,2023-174D,2026-06-15T03:14:33.745920,15.43036556,.000756,97.3853,250.8182,168.7953,191.3464,0,U,58259,999,14504,.36828E-3,.16191E-3,0
LEMUR-2-JK0903EM1407,2023-174CJ,2026-06-15T03:28:08.675040,15.51590538,.0005795,97.3929,256.5570,125.3675,234.8119,0,U,58336,999,14541,.44114E-3,.26121E-3,0
LEMUR-2-MJR092620,2023-174CN,2026-06-15T03:37:07.040352,15.44812030,.0007068,97.3985,256.1419,123.5226,236.6699,0,U,58340,999,14533,.34883E-3,.16278E-3,0
LEMUR-2-NIMBUS2000,2024-022A,2026-06-15T03:06:23.721408,15.39941513,.0010263,97.4106,16.1053,122.2903,237.9339,0,U,58899,999,13195,.40191E-3,.15961E-3,0
LEMUR-2-VALHALLA,2024-022B,2026-06-15T03:00:19.863360,15.39621046,.0010819,97.4102,16.0930,118.5947,241.6389,0,U,58900,999,13195,.39065E-3,.15351E-3,0
LEMUR-2-CAEL,2024-022E,2026-06-15T03:16:59.056896,15.40916544,.000928,97.4086,17.0369,103.6110,256.6170,0,U,58903,999,13202,.34166E-3,.13992E-3,0
LEMUR-2-JOHNNYTRUONG,2024-043BA,2026-06-15T03:53:22.052256,15.60331797,.0004748,97.5372,317.7396,182.4104,177.7131,0,U,59146,999,12772,.40955E-3,.33486E-3,0
LEMUR-2-TOMATOKECHUP,2024-149D,2026-06-15T03:40:15.774240,15.35998019,.0001239,97.3806,248.1941,179.4574,180.6671,0,U,60471,999,10185,.28281E-3,.9833E-4,0
LEMUR-2-STELLA,2024-149BT,2026-06-15T00:43:06.161952,15.11773029,.0001678,97.6747,248.4750,96.6629,263.4792,0,U,60533,999,10017,.65553E-3,.11128E-3,0
LEMUR-2-MARHISYAM,2024-149BW,2026-06-15T04:59:40.064640,15.11227916,.0003412,97.6888,249.1011,120.5860,239.5706,0,U,60536,999,10018,.48141E-3,.8029E-4,0
LEMUR-2-AHMED-ASRAR,2024-149DN,2026-06-15T04:16:18.785280,15.12676037,.0001965,97.7013,251.1557,46.6054,313.5339,0,U,60576,999,10026,.58606E-3,.10193E-3,0
LEMUR-2-LLOYD,2024-149DP,2026-06-15T04:27:37.631808,15.09204009,.000473,97.6749,247.3133,146.4360,213.7169,0,U,60577,999,10009,.53904E-3,.8511E-4,0
LEMUR-2-SQUIRRELCOMM,2024-149DQ,2026-06-15T04:44:03.626016,15.07131677,.00066,97.6714,247.1145,67.7267,292.4660,0,U,60578,999,10010,.30509E-3,.4523E-4,0
LEMUR-2-SIERRINI,2024-149DR,2026-06-15T03:57:35.505792,15.10912342,.0005692,97.6850,248.7478,170.3444,189.7895,0,U,60579,999,10015,.55659E-3,.9216E-4,0
LEMUR-2-WILSON,2025-009CP,2026-06-15T03:42:03.638592,14.95156419,.0004263,97.7025,244.6541,62.5179,297.6474,0,U,62694,999,7705,.20671E-3,.2212E-4,0
LEMUR-2-STAR-FOX,2025-009CR,2026-06-15T03:52:29.075232,15.02479158,.0003666,97.6960,247.7841,116.2332,243.9270,0,U,62696,999,7725,.50936E-3,.6702E-4,0
LEMUR-2-ARIANNA,2025-009CU,2026-06-15T03:50:03.390144,15.02460643,.0003978,97.6902,247.5589,122.4942,237.6668,0,U,62699,999,7725,.51058E-3,.6715E-4,0
LEMUR-2-ALISIA,2025-009DB,2026-06-14T22:31:08.464224,15.02743635,.0001726,97.6964,248.1233,190.7446,169.3742,0,U,62706,999,9982,.52744E-3,.6991E-4,0
